[{"OBJECT_NAME":"SCS-01 J","OBJECT_ID":"2025-100J","EPOCH":"2026-03-09T22:31:25.904064","MEAN_MOTION":15.31338011,"ECCENTRICITY":0.00063909,"INCLINATION":97.3693,"RA_OF_ASC_NODE":145.4824,"ARG_OF_PERICENTER":272.025,"MEAN_ANOMALY":88.026,"EPHEMERIS_TYPE":0,"CLASSIFICATION_TYPE":"U","NORAD_CAT_ID":63990,"ELEMENT_SET_NO":999,"REV_AT_EPOCH":4563,"BSTAR":0.0011832888,"MEAN_MOTION_DOT":0.00035886,"MEAN_MOTION_DDOT":0},{"OBJECT_NAME":"STARLINK-35904","OBJECT_ID":"2025-271L","EPOCH":"2026-03-09T11:33:48.525696","MEAN_MOTION":15.30193865,"ECCENTRICITY":9.943e-5,"INCLINATION":53.1575,"RA_OF_ASC_NODE":140.9863,"ARG_OF_PERICENTER":76.5963,"MEAN_ANOMALY":283.5148,"EPHEMERIS_TYPE":0,"CLASSIFICATION_TYPE":"U","NORAD_CAT_ID":66627,"ELEMENT_SET_NO":999,"REV_AT_EPOCH":1749,"BSTAR":0.001243665,"MEAN_MOTION_DOT":0.00036649,"MEAN_MOTION_DDOT":0}]
